GAOFEN-4                
1 41194U 15083A   26095.86156119 -.00000333  00000+0  00000+0 0  9993
2 41194   0.3953  82.9472 0006205  84.8085  82.2552  1.00270803 37802
BELINTERSAT-1           
1 41238U 16001A   26095.82650897  .00000109  00000+0  00000+0 0  9991
2 41238   0.0495  70.1249 0001498 293.0242 180.0198  1.00270883 37517
IRNSS-1E                
1 41241U 16003A   26094.34078049 -.00000292  00000+0  00000+0 0  9990
2 41241  33.0772  60.8121 0016904 186.2611 180.0759  1.00272036 37347
INTELSAT 29E (IS-29E)   
1 41308U 16004A   26095.40114177 -.00000215  00000+0  00000+0 0  9991
2 41308   6.3183  71.1808 0000754 310.1548 226.0100  1.00630902 37543
EUTELSAT 9B             
1 41310U 16005A   26095.83086177  .00000063  00000+0  00000+0 0  9990
2 41310   0.0563  58.7759 0003924 288.6865 154.7558  1.00271449 37392
SES-9                   
1 41380U 16013A   26095.83770715 -.00000343  00000+0  00000+0 0  9996
2 41380   0.0157 266.5681 0002012 149.3575 188.0691  1.00270963 36712
EUTELSAT 65 WEST A      
1 41382U 16014A   26095.80336889 -.00000275  00000+0  00000+0 0  9990
2 41382   0.0628 327.4186 0002300  51.2878  39.4082  1.00271141 36791
IRNSS-1F                
1 41384U 16015A   26095.74589370  .00000162  00000+0  00000+0 0  9995
2 41384   5.1658  98.4631 0017867 187.9731 208.5997  1.00275591 36945
IRNSS-1G                
1 41469U 16027A   26095.84195384 -.00000331  00000+0  00000+0 0  9990
2 41469   5.0165  99.1899 0005872 331.6108 195.9626  1.00270071 36456
JCSAT-2B                
1 41471U 16028A   26095.63287623 -.00000163  00000+0  00000+0 0  9992
2 41471   0.0176 197.3895 0001129 188.0106 190.3736  1.00271296 36402
THAICOM 8               
1 41552U 16031A   26095.83172713 -.00000120  00000+0  00000+0 0  9994
2 41552   0.0737  43.8178 0004257 334.0592 194.1878  1.00273099 35996
INTELSAT 31 (IS-31)     
1 41581U 16035A   26095.58358025 -.00000149  00000+0  00000+0 0  9995
2 41581   0.0128 223.2111 0001503  34.4999  51.2270  1.00272246 35954
BEIDOU-2 G7             
1 41586U 16037A   26095.89029640 -.00000351  00000+0  00000+0 0  9999
2 41586   1.5415  68.6376 0007576 350.0374 206.4972  1.00277470  6166
ABS-2A (MONGOLSAT-1)    
1 41588U 16038A   26095.86711584 -.00000082  00000+0  00000+0 0  9995
2 41588   0.0078 244.7179 0001650  82.3523 253.9761  1.00271072 35980
EUTELSAT 117 WEST B     
1 41589U 16038B   26095.65046965 -.00000010  00000+0  00000+0 0  9998
2 41589   0.0146  59.4786 0000268 233.8299  17.8137  1.00270922 35931
BRISAT                  
1 41591U 16039A   26095.83864332 -.00000194  00000+0  00000+0 0  9991
2 41591   0.0147 253.2034 0002216 123.5151 269.8287  1.00271728 35886
ECHOSTAR 18             
1 41592U 16039B   26095.51888492 -.00000280  00000+0  00000+0 0  9996
2 41592   0.0172 195.2855 0001571 196.0504 287.9137  1.00271416 35891
